2025-313B               
1 67249U 25313B   26197.62311952  .00000975  00000+0  79443-4 0  9997
2 67249  97.5101 260.9348 0290905 239.3700 117.8533 14.74352921 29472
2025-313C               
1 67250U 25313C   26197.13214422  .00004730  00000+0  41267-3 0  9994
2 67250  97.6152 266.7609 0148490 240.3992 118.2362 14.89160975 29669
2025-313D               
1 67251U 25313D   26197.43024925  .00000840  00000+0  77118-4 0  9998
2 67251  97.5676 266.5152 0147316 229.5443 129.2854 14.89712115 29754
ZORKIY-2M-VPE           
1 67252U 25313E   26197.45784113  .00003521  00000+0  14547-3 0  9998
2 67252  97.3935 272.0674 0008842 234.6066 125.4346 15.24625457 30433
AIST-2T 1               
1 67253U 25313F   26197.15961929  .00008747  00000+0  10651-3 0  9995
2 67253  97.0824 274.7362 0005668 150.4865 209.6714 15.60738466 31144
AIST-2T 2               
1 67254U 25313G   26197.19171291  .00020715  00000+0  25099-3 0  9996
2 67254  97.0844 274.6923 0005050 123.9425 236.2314 15.60660688 31132
2025-313H               
1 67255U 25313H   26197.45689224  .00001411  00000+0  93053-4 0  9994
2 67255  97.2851 263.8275 0067215 232.6937 126.8153 15.07216188 30069
SITRO-AIS-57            
1 67256U 25313J   26197.17982784  .00004329  00000+0  18343-3 0  9990
2 67256  97.3917 271.3390 0013929 257.5007 102.4672 15.23597554 30369
SITRO-AIS-59            
1 67257U 25313K   26196.13364730  .00002839  00000+0  12168-3 0  9994
2 67257  97.3923 270.3140 0013780 264.5443  95.4222 15.23502736 30209
SITRO-AIS-58            
1 67258U 25313L   26197.50196292  .00004452  00000+0  18831-3 0  9999
2 67258  97.3920 271.6755 0013660 257.7875 102.1833 15.23639396 30413
2025-313M               
1 67259U 25313M   26197.45242926  .00005608  00000+0  22624-3 0  9999
2 67259  97.3959 272.0131 0012675 253.9673 106.0169 15.25139096 30428
SITRO-AIS-60            
1 67260U 25313N   26197.17930485  .00003152  00000+0  13889-3 0  9999
2 67260  97.3943 271.2340 0011968 259.5775 100.4113 15.22490651 30358
2025-313P               
1 67261U 25313P   26196.19436500  .00008936  00000+0  33685-3 0  9991
2 67261  97.3963 271.0976 0012011 255.7107 104.2798 15.27234827 30257
2025-313Q               
1 67262U 25313Q   26196.44359312  .00005471  00000+0  22429-3 0  9990
2 67262  97.3933 270.8266 0012737 259.6559 100.3243 15.24606823 30262
DCS-1                   
1 67263U 25313R   26197.14383133  .00005047  00000+0  21169-3 0  9996
2 67263  97.3945 271.4645 0012812 258.6628 101.3170 15.23869933 30367
KOWSAR 1.5              
1 67264U 25313S   26197.16604278  .00002967  00000+0  13037-3 0  9998
2 67264  97.4014 271.4520 0013119 266.3835  93.5901 15.22621770 30352
SITRO-TD-4              
1 67265U 25313T   26197.47715998  .00004419  00000+0  18630-3 0  9993
2 67265  97.3921 271.7270 0012750 258.5129 101.4677 15.23764592 30410
SITRO-AIS-65            
1 67266U 25313U   26197.46989202  .00004545  00000+0  19085-3 0  9999
2 67266  97.3950 271.8092 0012664 256.8208 103.1616 15.23886034 30417
2025-313V               
1 67267U 25313V   26197.62250949  .00005996  00000+0  24624-3 0  9993
2 67267  97.3929 272.0024 0011901 262.8251  97.1633 15.24516147 30440
ZORKY-2M 7              
1 67268U 25313W   26197.20324553  .00003312  00000+0  14376-3 0  9994
2 67268  97.3938 271.3558 0013164 259.8959 100.0793 15.22957113 30361
2025-313X               
1 67269U 25313X   26197.15935436  .00006614  00000+0  26330-3 0  9998
2 67269  97.3956 271.7814 0012293 254.5856 105.4025 15.25516910 30389
SITRO-TD-3              
1 67270U 25313Y   26197.47173020  .00004430  00000+0  18617-3 0  9991
2 67270  97.3932 271.7597 0012792 257.8499 102.1306 15.23872949 30411
2025-313Z               
1 67271U 25313Z   26197.61685551  .00002198  00000+0  99723-4 0  9992
2 67271  97.3929 271.5506 0013260 256.3484 103.6275 15.21806631 30419
2025-313AA              
1 67272U 25313AA  26197.47729089  .00005277  00000+0  21748-3 0  9994
2 67272  97.3928 271.8860 0012093 258.5396 101.4484 15.24449626 30423
2025-313AB              
1 67273U 25313AB  26197.45536336  .00001462  00000+0  68390-4 0  9991
2 67273  97.3950 271.3573 0012552 268.0732  91.9066 15.21283651 30380
2025-313AC              
1 67274U 25313AC  26197.14534174  .00003285  00000+0  14309-3 0  9991
2 67274  97.3924 271.2551 0012919 259.7151 100.2629 15.22842625 30355
2025-313AD              
1 67275U 25313AD  26197.19771587  .00002832  00000+0  12334-3 0  9991
2 67275  97.3900 271.2836 0012399 264.3250  95.6573 15.22968798 30366
2025-313AE              
1 67276U 25313AE  26196.73761053  .00003576  00000+0  15495-3 0  9995
2 67276  97.3895 270.8136 0012020 265.1272  94.8593 15.22972286 30294
2025-313AF              
1 67277U 25313AF  26197.20077139  .00003094  00000+0  13465-3 0  9994
2 67277  97.3900 271.2746 0011987 263.4283  96.5590 15.22928076 30360
2025-313AG              
1 67278U 25313AG  26197.19707586  .00002973  00000+0  12987-3 0  9992
2 67278  97.3887 271.2672 0012770 264.0670  95.9111 15.22820494 30379
