OBJECT_NAME,OBJECT_ID,EPOCH,MEAN_MOTION,ECCENTRICITY,INCLINATION,RA_OF_ASC_NODE,ARG_OF_PERICENTER,MEAN_ANOMALY,EPHEMERIS_TYPE,CLASSIFICATION_TYPE,NORAD_CAT_ID,ELEMENT_SET_NO,REV_AT_EPOCH,BSTAR,MEAN_MOTION_DOT,MEAN_MOTION_DDOT
2025-313B,2025-313B,2026-07-16T14:57:17.526528,14.74352921,.02909056,97.5101,260.9348,239.3700,117.8533,0,U,67249,999,2947,.79443319E-4,.975E-5,0
2025-313C,2025-313C,2026-07-16T03:10:17.260608,14.89160975,.01484905,97.6152,266.7609,240.3992,118.2362,0,U,67250,999,2966,.41267176E-3,.473E-4,0
2025-313D,2025-313D,2026-07-16T10:19:33.535200,14.89712115,.01473161,97.5676,266.5152,229.5443,129.2854,0,U,67251,999,2975,.77117534E-4,.84E-5,0
ZORKIY-2M-VPE,2025-313E,2026-07-16T10:59:17.473632,15.24625457,.00088429,97.3935,272.0674,234.6066,125.4346,0,U,67252,999,3043,.14546696E-3,.3521E-4,0
AIST-2T 1,2025-313F,2026-07-16T03:49:51.106656,15.60738466,.0005668,97.0824,274.7362,150.4865,209.6714,0,U,67253,999,3114,.10651204E-3,.8747E-4,0
AIST-2T 2,2025-313G,2026-07-16T04:36:03.995424,15.60660688,.000505,97.0844,274.6923,123.9425,236.2314,0,U,67254,999,3113,.25098839E-3,.20715E-3,0
2025-313H,2025-313H,2026-07-16T10:57:55.489536,15.07216188,.0067215,97.2851,263.8275,232.6937,126.8153,0,U,67255,999,3006,.93052679E-4,.1411E-4,0
SITRO-AIS-57,2025-313J,2026-07-16T04:18:57.125376,15.23597554,.00139299,97.3917,271.3390,257.5007,102.4672,0,U,67256,999,3036,.18342857E-3,.4329E-4,0
SITRO-AIS-59,2025-313K,2026-07-15T03:12:27.126720,15.23502736,.001378,97.3923,270.3140,264.5443,95.4222,0,U,67257,999,3020,.12168E-3,.2839E-4,0
SITRO-AIS-58,2025-313L,2026-07-16T12:02:49.596288,15.23639396,.00136609,97.3920,271.6755,257.7875,102.1833,0,U,67258,999,3041,.18830695E-3,.4452E-4,0
2025-313M,2025-313M,2026-07-16T10:51:29.888064,15.25139096,.00126754,97.3959,272.0131,253.9673,106.0169,0,U,67259,999,3042,.22624008E-3,.5608E-4,0
SITRO-AIS-60,2025-313N,2026-07-16T04:18:11.939040,15.22490651,.00119689,97.3943,271.2340,259.5775,100.4113,0,U,67260,999,3035,.13889361E-3,.3152E-4,0
2025-313P,2025-313P,2026-07-15T04:39:53.136000,15.27234827,.00120114,97.3963,271.0976,255.7107,104.2798,0,U,67261,999,3025,.33684559E-3,.8936E-4,0
2025-313Q,2025-313Q,2026-07-15T10:38:46.445568,15.24606823,.00127378,97.3933,270.8266,259.6559,100.3243,0,U,67262,999,3026,.22429045E-3,.5471E-4,0
DCS-1,2025-313R,2026-07-16T03:27:07.026912,15.23869933,.00128129,97.3945,271.4645,258.6628,101.3170,0,U,67263,999,3036,.21169125E-3,.5047E-4,0
KOWSAR 1.5,2025-313S,2026-07-16T03:59:06.096192,15.22621770,.00131196,97.4014,271.4520,266.3835,93.5901,0,U,67264,999,3035,.13037424E-3,.2967E-4,0
SITRO-TD-4,2025-313T,2026-07-16T11:27:06.622272,15.23764592,.00127509,97.3921,271.7270,258.5129,101.4677,0,U,67265,999,3041,.18630414E-3,.4419E-4,0
SITRO-AIS-65,2025-313U,2026-07-16T11:16:38.670528,15.23886034,.00126642,97.3950,271.8092,256.8208,103.1616,0,U,67266,999,3041,.19085474E-3,.4545E-4,0
2025-313V,2025-313V,2026-07-16T14:56:24.819936,15.24516147,.00119011,97.3929,272.0024,262.8251,97.1633,0,U,67267,999,3044,.24624327E-3,.5996E-4,0
ZORKY-2M 7,2025-313W,2026-07-16T04:52:40.413792,15.22957113,.00131641,97.3938,271.3558,259.8959,100.0793,0,U,67268,999,3036,.14375696E-3,.3312E-4,0
2025-313X,2025-313X,2026-07-16T03:49:28.216704,15.25516910,.00122933,97.3956,271.7814,254.5856,105.4025,0,U,67269,999,3038,.26329585E-3,.6614E-4,0
SITRO-TD-3,2025-313Y,2026-07-16T11:19:17.489280,15.23872949,.00127926,97.3932,271.7597,257.8499,102.1306,0,U,67270,999,3041,.18616605E-3,.443E-4,0
2025-313Z,2025-313Z,2026-07-16T14:48:16.316064,15.21806631,.00132609,97.3929,271.5506,256.3484,103.6275,0,U,67271,999,3041,.99723346E-4,.2198E-4,0
2025-313AA,2025-313AA,2026-07-16T11:27:17.932896,15.24449626,.00120931,97.3928,271.8860,258.5396,101.4484,0,U,67272,999,3042,.21748276E-3,.5277E-4,0
2025-313AB,2025-313AB,2026-07-16T10:55:43.394304,15.21283651,.00125529,97.3950,271.3573,268.0732,91.9066,0,U,67273,999,3038,.68390203E-4,.1462E-4,0
2025-313AC,2025-313AC,2026-07-16T03:29:17.526336,15.22842625,.00129193,97.3924,271.2551,259.7151,100.2629,0,U,67274,999,3035,.14308895E-3,.3285E-4,0
2025-313AD,2025-313AD,2026-07-16T04:44:42.651168,15.22968798,.00123996,97.3900,271.2836,264.3250,95.6573,0,U,67275,999,3036,.1233361E-3,.2832E-4,0
2025-313AE,2025-313AE,2026-07-15T17:42:09.549792,15.22972286,.00120205,97.3895,270.8136,265.1272,94.8593,0,U,67276,999,3029,.15494547E-3,.3576E-4,0
2025-313AF,2025-313AF,2026-07-16T04:49:06.648096,15.22928076,.00119876,97.3900,271.2746,263.4283,96.5590,0,U,67277,999,3036,.13465096E-3,.3094E-4,0
2025-313AG,2025-313AG,2026-07-16T04:43:47.354304,15.22820494,.00127709,97.3887,271.2672,264.0670,95.9111,0,U,67278,999,3037,.12987269E-3,.2973E-4,0
